STARLINK-31995          
1 59958U 24107P   26068.27465130  .00000834  00000+0  40267-4 0  9997
2 59958  53.1589  67.4043 0001148  72.8895 287.2232 15.30196126 98531
KUIPER-00266            
1 67789U 26030AB  26067.91293632  .00029701  00000+0  98220-3 0  9996
2 67789  51.8807 223.5904 0022313  72.5291 287.8129 15.30874235  4964
